STARLINK-1553
1 46348U 20062Z   26092.68602838  .00029107  00000+0  77968-3 0  9993
2 46348  53.0356 193.9274 0002567 240.9909 119.0836 15.37796768308982
